TANAGER-1               
1 60507U 24149AR  26200.88034238  .00000178  00000+0  57659-5 0  9996
2 60507  97.2323 294.9852 0001861 135.2559 224.8840 15.43941608108087
