{"fetched_at":"2026-07-20T07:40:25.481Z","source":"https://celestrak.org/NORAD/elements/gp.php?GROUP=planet&FORMAT=JSON","constellation":"tanager","records":[{"OBJECT_NAME":"TANAGER-1","OBJECT_ID":"2024-149AR","EPOCH":"2026-07-19T21:07:41.581632","CLASSIFICATION_TYPE":"U","MEAN_MOTION":15.43941608,"ECCENTRICITY":0.0001861,"INCLINATION":97.2323,"RA_OF_ASC_NODE":294.9852,"ARG_OF_PERICENTER":135.2559,"MEAN_ANOMALY":224.884,"EPHEMERIS_TYPE":0,"NORAD_CAT_ID":60507,"ELEMENT_SET_NO":999,"REV_AT_EPOCH":10808,"BSTAR":0.0000057659,"MEAN_MOTION_DOT":0.00000178,"MEAN_MOTION_DDOT":0}]}
